NORAD_CAT_ID,OBJECT_NAME,OBJECT_TYPE,EPOCH,MEAN_MOTION,ECCENTRICITY,INCLINATION,RA_OF_ASC_NODE,ARG_OF_PERICENTER,MEAN_ANOMALY,BSTAR,MEAN_MOTION_DOT,MEAN_MOTION_DDOT,TLE_LINE0,TLE_LINE1,TLE_LINE2,SEMIMAJOR_AXIS,PERIOD,APOGEE,PERIGEE,DECAYED
53709.0,STARLINK-4685,PAYLOAD,2022-10-27 14:00:01,15.73192216,0.000272,53.2151,13.3625,12.8601,123.3896,0.00065098,0.00091723,0.0,0 STARLINK-4685,1 53709U 22107K   22300.58335648  .00091723  00000-0  65098-3 0  9998,2 53709  53.2151  13.3625 0002720  12.8601 123.3896 15.73192216  1305,6727.917,91.534,351.612,347.952,0.0
53709.0,STARLINK-4685,PAYLOAD,2022-10-27 22:00:00,15.7328857,0.0002706,53.2152,11.7114,16.6999,208.44,-0.00051914,-0.00073141,0.0,0 STARLINK-4685,1 53709U 22107K   22300.91667824 -.00073141  00000-0 -51914-3 0  9997,2 53709  53.2152  11.7114 0002706  16.6999 208.4400 15.73288570  1302,6727.643,91.528,351.32800000000015,347.68699999999984,0.0
53709.0,STARLINK-4685,PAYLOAD,2022-10-28 08:00:01,15.73281541,0.0002846,53.2152,9.6495,22.6215,43.8277,-0.00087969,-0.00122756,0.0,0 STARLINK-4685,1 53709U 22107K   22301.33335648 -.00122756  00000-0 -87969-3 0  9996,2 53709  53.2152   9.6495 0002846  22.6215  43.8277 15.73281541  8506,6727.663000000001,91.528,351.44199999999995,347.61300000000006,0.0
53709.0,STARLINK-4685,PAYLOAD,2022-10-28 14:00:01,15.73179128,0.0003005,53.2149,8.4134,22.0445,21.1669,0.00035251,0.00049105,0.0,0 STARLINK-4685,1 53709U 22107K   22301.58335648  .00049105  00000-0  35251-3 0  9994,2 53709  53.2149   8.4134 0003005  22.0445  21.1669 15.73179128  1308,6727.955,91.534,351.841,347.798,0.0
53709.0,STARLINK-4685,PAYLOAD,2022-10-28 22:00:01,15.73251186,0.0002787,53.2145,6.7621,18.3702,113.7607,-0.0007178999999999,-0.00100425,0.0,0 STARLINK-4685,1 53709U 22107K   22301.91668981 -.00100425  00000-0 -71790-3 0  9993,2 53709  53.2145   6.7621 0002787  18.3702 113.7607 15.73251186  8599,6727.749,91.53,351.48900000000015,347.73900000000015,0.0
53709.0,STARLINK-4685,PAYLOAD,2022-10-29 08:00:01,15.73183311,0.000277,53.2146,4.7005,15.0371,318.2176,0.00033284,0.00046321,0.0,0 STARLINK-4685,1 53709U 22107K   22302.33334491  .00046321  00000-0  33284-3 0  9994,2 53709  53.2146   4.7005 0002770  15.0371 318.2176 15.73183311  8656,6727.943,91.534,351.671,347.944,0.0
53709.0,STARLINK-4685,PAYLOAD,2022-10-29 12:00:00,15.73213854,0.0002921999999999,53.2146,3.8767,13.7841,183.933,0.00029989,0.00041707,0.0,0 STARLINK-4685,1 53709U 22107K   22302.50001157  .00041707  00000-0  29989-3 0  9993,2 53709  53.2146   3.8767 0002922  13.7841 183.9330 15.73213854  1307,6727.856,91.532,351.68699999999984,347.755,0.0
53709.0,STARLINK-4685,PAYLOAD,2022-10-29 22:00:01,15.73242723,0.0002833,53.215,1.813,11.933,27.0587,-0.00013474,-0.00019527,0.0,0 STARLINK-4685,1 53709U 22107K   22302.91668981 -.00019527  00000-0 -13474-3 0  9991,2 53709  53.2150   1.8130 0002833  11.9330  27.0587 15.73242723  1307,6727.773,91.531,351.5440000000001,347.732,0.0
53709.0,STARLINK-4685,PAYLOAD,2022-10-30 14:00:01,15.73100915,0.0003286999999999,53.2148,358.5155,18.7035,198.182,0.00041489,0.00057772,0.0,0 STARLINK-4685,1 53709U 22107K   22303.58334491  .00057772  00000-0  41489-3 0  9990,2 53709  53.2148 358.5155 0003287  18.7035 198.1820 15.73100915  1300,6728.178000000001,91.539,352.254,347.831,0.0
53709.0,STARLINK-4685,PAYLOAD,2022-10-30 22:00:01,15.73135511,0.0003013999999999,53.2145,356.8639,18.933,286.8611,0.000591,0.00082928,0.0,0 STARLINK-4685,1 53709U 22107K   22303.91668981  .00082928  00000-0  59100-3 0  9991,2 53709  53.2145 356.8639 0003014  18.9330 286.8611 15.73135511  1306,6728.079000000002,91.537,351.972,347.916,0.0
53709.0,STARLINK-4685,PAYLOAD,2022-10-31 14:00:01,15.72970991,0.0002799,53.2173,353.5721,309.2017,174.1843,-0.0074026,-0.00923281,0.0,0 STARLINK-4685,1 53709U 22107K   22304.58334491 -.00923281  00000-0 -74026-2 0  9992,2 53709  53.2173 353.5721 0002799 309.2017 174.1843 15.72970991  1304,6728.5480000000025,91.547,352.296,348.53,0.0
53709.0,STARLINK-4685,PAYLOAD,2022-10-31 22:00:01,15.72296054,0.0005362,53.2175,351.9254,276.4096,295.2923,-0.010068,-0.01227095,0.0,0 STARLINK-4685,1 53709U 22107K   22304.91668981 -.01227095  00000-0 -10068-1 0  9999,2 53709  53.2175 351.9254 0005362 276.4096 295.2923 15.72296054  9066,6730.474,91.586,355.94699999999995,348.73,0.0
53709.0,STARLINK-4685,PAYLOAD,2022-11-01 14:00:01,15.70569952,0.0005258999999999,53.2173,348.6428,271.4015,113.776,-0.010934,-0.01237086,0.0,0 STARLINK-4685,1 53709U 22107K   22305.58334491 -.01237086  00000-0 -10934-1 0  9992,2 53709  53.2173 348.6428 0005259 271.4015 113.7760 15.70569952  1301,6735.404,91.686,360.811,353.727,0.0
53709.0,STARLINK-4685,PAYLOAD,2022-11-01 22:00:00,15.69696255,0.0003766,53.2175,347.0034,271.0411,199.3505,-0.01133,-0.01234823,0.0,0 STARLINK-4685,1 53709U 22107K   22305.91667824 -.01234823  00000-0 -11330-1 0  9995,2 53709  53.2175 347.0034 0003766 271.0411 199.3505 15.69696255  9227,6737.903,91.737,362.306,357.231,0.0
53709.0,STARLINK-4685,PAYLOAD,2022-11-02 14:00:01,15.67941631,8.97e-05,53.2173,343.7347,84.52600000000002,193.16,-0.011839,-0.01201655,0.0,0 STARLINK-4685,1 53709U 22107K   22306.58334491 -.01201655  00000-0 -11839-1 0  9991,2 53709  53.2173 343.7347 0000897  84.5260 193.1600 15.67941631  1304,6742.929,91.84,365.399,364.189,0.0
53709.0,STARLINK-4685,PAYLOAD,2022-11-02 22:00:00,15.67067518,0.0003427,53.2175,342.1004,268.9111,90.8571,-0.012134,-0.01190608,0.0,0 STARLINK-4685,1 53709U 22107K   22306.91667824 -.01190608  00000-0 -12134-1 0  9991,2 53709  53.2175 342.1004 0003427 268.9111  90.8571 15.67067518  9383,6745.436,91.891,369.61300000000006,364.989,0.0
53709.0,STARLINK-4685,PAYLOAD,2022-11-03 14:00:01,15.65360156,0.0001409999999999,53.2175,338.8419,32.0391,128.7471,-0.01351,-0.01231205,0.0,0 STARLINK-4685,1 53709U 22107K   22307.58334491 -.01231205  00000-0 -13510-1 0  9994,2 53709  53.2175 338.8419 0001410  32.0391 128.7471 15.65360156  9488,6750.34,91.992,373.157,371.253,0.0
53709.0,STARLINK-4685,PAYLOAD,2022-11-03 22:00:00,15.64471363,0.0001396999999999,53.2176,337.2162,47.659,192.0878,-0.013647,-0.01203158,0.0,0 STARLINK-4685,1 53709U 22107K   22307.91667824 -.01203158  00000-0 -13647-1 0  9997,2 53709  53.2176 337.2162 0001397  47.6590 192.0878 15.64471363  1304,6752.897,92.044,375.705,373.818,0.0
53709.0,STARLINK-4685,PAYLOAD,2022-11-04 14:00:01,15.62736992,0.0001471,53.2171,333.9704,34.6838,359.8345,-0.0146639999999999,-0.01206429,0.0,0 STARLINK-4685,1 53709U 22107K   22308.58334491 -.01206429  00000-0 -14664-1 0  9996,2 53709  53.2171 333.9704 0001471  34.6838 359.8345 15.62736992  9645,6757.892,92.146,380.751,378.763,0.0
53709.0,STARLINK-4685,PAYLOAD,2022-11-04 22:00:01,15.61863145,0.0001559,53.2177,332.3458,36.4074,73.9999,-0.015036,-0.01196424,0.0,0 STARLINK-4685,1 53709U 22107K   22308.91668981 -.01196424  00000-0 -15036-1 0  9994,2 53709  53.2177 332.3458 0001559  36.4074  73.9999 15.61863145  1303,6760.4119999999975,92.198,383.331,381.223,0.0
53709.0,STARLINK-4685,PAYLOAD,2022-11-05 06:00:00,15.60821398,0.0001489,53.217,330.7246,63.9698,121.2352,-0.012282,-0.00945648,0.0,0 STARLINK-4685,1 53709U 22107K   22309.25001157 -.00945648  00000-0 -12282-1 0  9997,2 53709  53.2170 330.7246 0001489  63.9698 121.2352 15.60821398  9741,6763.42,92.259,386.292,384.278,0.0
53709.0,STARLINK-4685,PAYLOAD,2022-11-05 14:00:01,15.59836886,0.0001242,53.2179,329.1090000000001,68.1213,190.942,-0.010491,-0.00779905,0.0,0 STARLINK-4685,1 53709U 22107K   22309.58335648 -.00779905  00000-0 -10491-1 0  9999,2 53709  53.2179 329.1090 0001242  68.1213 190.9420 15.59836886  9796,6766.266,92.317,388.971,387.29,0.0
53709.0,STARLINK-4685,PAYLOAD,2022-11-05 22:00:01,15.59261076,0.0001217,53.2174,327.4892,47.8129,283.8018,-0.0166949999999999,-0.01200472,0.0,0 STARLINK-4685,1 53709U 22107K   22309.91668981 -.01200472  00000-0 -16695-1 0  9996,2 53709  53.2174 327.4892 0001217  47.8129 283.8018 15.59261076  9859,6767.931,92.351,390.62,388.973,0.0
53709.0,STARLINK-4685,PAYLOAD,2022-11-06 14:00:01,15.56880055,0.000162,53.2164,324.2634,40.3162,73.8309,-0.0046015,-0.00323873,0.0,0 STARLINK-4685,1 53709U 22107K   22310.58334491 -.00323873  00000-0 -46015-2 0  9997,2 53709  53.2164 324.2634 0001620  40.3162  73.8309 15.56880055  1303,6774.83,92.493,397.793,395.598,0.0
53709.0,STARLINK-4685,PAYLOAD,2022-11-06 22:00:00,15.56271943,0.0001992,53.2174,322.6517,37.9607,145.6012,-0.010016,-0.00660515,0.0,0 STARLINK-4685,1 53709U 22107K   22310.91667824 -.00660515  00000-0 -10016-1 0  9991,2 53709  53.2174 322.6517 0001992  37.9607 145.6012 15.56271943 10000,6776.595,92.529,399.81,397.11,0.0
53709.0,STARLINK-4685,PAYLOAD,2022-11-07 08:00:01,15.55554372,0.0001688,53.2174,320.644,36.5847,322.276,-0.018695,-0.01171975,0.0,0 STARLINK-4685,1 53709U 22107K   22311.33334491 -.01171975  00000-0 -18695-1 0  9998,2 53709  53.2174 320.6440 0001688  36.5847 322.2760 15.55554372 10075,6778.679,92.571,401.68800000000016,399.399,0.0
53709.0,STARLINK-4685,PAYLOAD,2022-11-07 22:00:00,15.54052796,0.0001458,53.2172,317.833,36.4053,349.3957,-0.020265,-0.01217178,0.0,0 STARLINK-4685,1 53709U 22107K   22311.91667824 -.01217178  00000-0 -20265-1 0  9993,2 53709  53.2172 317.8330 0001458  36.4053 349.3957 15.54052796  1308,6783.044,92.661,405.898,403.92,0.0
53709.0,STARLINK-4685,PAYLOAD,2022-11-08 00:00:02,15.53559942,0.0001608,53.2175,317.4314,43.6007,88.8482,-0.013735,-0.00815847,0.0,0 STARLINK-4685,1 53709U 22107K   22312.00002315 -.00815847  00000-0 -13735-1 0  9992,2 53709  53.2175 317.4314 0001608  43.6007  88.8482 15.53559942 10172,6784.479,92.69,407.435,405.253,0.0
53709.0,STARLINK-4685,PAYLOAD,2022-11-08 10:00:01,15.52753205,0.0001113,53.2175,315.433,70.9536,232.6047,-0.021288,-0.01218983,0.0,0 STARLINK-4685,1 53709U 22107K   22312.41668981 -.01218983  00000-0 -21288-1 0  9995,2 53709  53.2175 315.4330 0001113  70.9536 232.6047 15.52753205 10239,6786.829000000002,92.738,409.449,407.93800000000016,0.0
